[{"OBJECT_NAME":"STARLINK-5816","OBJECT_ID":"2023-028AP","EPOCH":"2026-03-09T20:52:14.217600","MEAN_MOTION":14.98317353,"ECCENTRICITY":0.00031275,"INCLINATION":69.9999,"RA_OF_ASC_NODE":223.8557,"ARG_OF_PERICENTER":268.811,"MEAN_ANOMALY":91.269,"EPHEMERIS_TYPE":0,"CLASSIFICATION_TYPE":"U","NORAD_CAT_ID":55778,"ELEMENT_SET_NO":999,"REV_AT_EPOCH":16656,"BSTAR":6.7909651e-5,"MEAN_MOTION_DOT":7.17e-6,"MEAN_MOTION_DDOT":0},{"OBJECT_NAME":"ATLAS 28E DEB","OBJECT_ID":"1990-031E","EPOCH":"2026-03-09T22:13:15.208608","MEAN_MOTION":14.88062431,"ECCENTRICITY":0.00498313,"INCLINATION":89.8423,"RA_OF_ASC_NODE":265.8289,"ARG_OF_PERICENTER":258.935,"MEAN_ANOMALY":100.6272,"EPHEMERIS_TYPE":0,"CLASSIFICATION_TYPE":"U","NORAD_CAT_ID":20564,"ELEMENT_SET_NO":999,"REV_AT_EPOCH":35731,"BSTAR":0.00023704845,"MEAN_MOTION_DOT":2.245e-5,"MEAN_MOTION_DDOT":0}]
